OBJECT_NAME,OBJECT_ID,EPOCH,MEAN_MOTION,ECCENTRICITY,INCLINATION,RA_OF_ASC_NODE,ARG_OF_PERICENTER,MEAN_ANOMALY,EPHEMERIS_TYPE,CLASSIFICATION_TYPE,NORAD_CAT_ID,ELEMENT_SET_NO,REV_AT_EPOCH,BSTAR,MEAN_MOTION_DOT,MEAN_MOTION_DDOT
SWARM B,2013-067A,2026-07-22T14:44:53.956896,15.28751784,.00022532,87.7464,331.5561,91.3746,268.7761,0,U,39451,999,68865,.12342185E-3,.3482E-4,0
SWARM A,2013-067B,2026-07-22T12:09:35.362656,15.50704851,.00033106,87.3303,43.1056,90.0340,270.1300,0,U,39452,999,71172,.18093298E-3,.10431E-3,0
SWARM C,2013-067C,2026-07-22T12:08:39.922368,15.50706946,.00032413,87.3303,41.6864,89.8874,270.2758,0,U,39453,999,71168,.17440568E-3,.10057E-3,0
BRITE-CA1 (TORONTO),2014-033L,2026-07-22T07:12:48.731328,14.72733175,.0078997,97.9778,331.5896,163.5669,196.8127,0,U,40020,999,64738,.13812017E-3,.873E-5,0
OCO 2,2014-035A,2026-07-22T14:07:39.292608,14.57136200,.00014021,98.2021,144.3445,80.5843,279.5513,0,U,40059,999,64120,.69871076E-4,.27E-5,0
BRITE-PL2 (HEWELIUSZ),2014-049B,2026-07-22T14:05:14.385120,14.94702812,.0013634,97.9122,315.8672,358.1835,1.9333,0,U,40119,999,64673,.15180654E-3,.159E-4,0
MMS 1,2015-011A,2026-07-22T16:00:01.999584,0.28358585,.83018585,72.5709,348.3769,168.1778,317.7394,0,U,40482,999,138,0,-.1491E-4,0
MMS 2,2015-011B,2026-07-22T16:00:01.999584,0.28358399,.83046845,72.5750,348.3759,168.1809,317.7258,0,U,40483,999,138,0,-.1492E-4,0
MMS 3,2015-011C,2026-07-22T16:00:01.999584,0.28358381,.8303052,72.5747,348.3878,168.1886,317.6999,0,U,40484,999,135,0,-.149E-4,0
MMS 4,2015-011D,2026-07-22T16:00:01.999584,0.28358428,.83030086,72.5702,348.3713,168.1985,317.6962,0,U,40485,999,138,0,-.1491E-4,0
ASTROSAT,2015-052A,2026-07-22T13:03:14.059008,14.82560547,.00079195,5.9965,260.8562,184.2951,175.7109,0,U,40930,999,58508,.8627283E-4,.1381E-4,0
DAMPE,2015-078A,2026-07-22T14:19:26.505120,15.30866194,.00107378,97.4574,209.2412,317.7198,42.3214,0,U,41173,999,58996,.39595243E-4,.1104E-4,0
PISAT,2016-059B,2026-07-22T10:15:09.800928,14.69039095,.00305851,97.8195,202.3689,92.8219,267.6488,0,U,41784,999,52491,.14023159E-3,.781E-5,0
HXMT (HUIYAN),2017-034A,2026-07-22T12:29:15.960768,15.18734331,.00312904,43.0151,346.2577,7.0253,353.1028,0,U,42758,999,50303,.24621677E-3,.5029E-4,0
FLYING LAPTOP,2017-042G,2026-07-22T15:28:30.483264,15.01345106,.00192451,97.4845,357.8522,8.7660,351.3897,0,U,42831,999,49177,.21046163E-3,.2663E-4,0
ZHANGHENG 1-01 (CSES-1),2018-015C,2026-07-22T14:28:03.559008,15.20677562,.00169288,97.6902,9.9694,140.3790,219.8686,0,U,43194,999,47002,.34619946E-3,.7562E-4,0
SALSAT,2020-068K,2026-07-22T11:04:14.814912,15.30243913,.00099778,97.8868,208.6876,167.8214,192.3268,0,U,46495,999,32075,.24997179E-3,.7239E-4,0
IXPE,2021-121A,2026-07-22T16:00:01.999584,15.10537162,.00068325,0.2305,48.8875,258.0934,190.9857,0,U,49954,999,519,.56180259E-3,.10481E-3,0
SMILE,2026-109A,2026-07-13T23:01:31.580256,0.47500629,.83137076,70.0512,206.6048,286.9544,0.1879,0,U,69123,999,6,0,.936E-5,0
