{"epoch":1784762836,"count":18316,"objects":[{"id":"39451","name":"SWARM B","type":"PAYLOAD","l1":"1 39451U 13067A   26203.61451339  .00003482  00000-0  12342-3 0  9996","l2":"2 39451  87.7464 331.5561 0002253  91.3746 268.7761 15.28751784688654"},{"id":"39452","name":"SWARM A","type":"PAYLOAD","l1":"1 39452U 13067B   26203.50665929  .00010431  00000-0  18093-3 0  9998","l2":"2 39452  87.3303  43.1056 0003311  90.0340 270.1300 15.50704851711729"},{"id":"39453","name":"SWARM C","type":"PAYLOAD","l1":"1 39453U 13067C   26203.50601762  .00010057  00000-0  17441-3 0  9994","l2":"2 39453  87.3303  41.6864 0003241  89.8874 270.2758 15.50706946711680"},{"id":"40020","name":"BRITE TORONTO","type":"PAYLOAD","l1":"1 40020U 14033L   26203.30056402  .00000873  00000-0  13812-3 0  9996","l2":"2 40020  97.9778 331.5896 0078997 163.5669 196.8127 14.72733175647388"},{"id":"40059","name":"OCO 2","type":"PAYLOAD","l1":"1 40059U 14035A   26203.58864922  .00000270  00000-0  69871-4 0  9992","l2":"2 40059  98.2021 144.3445 0001402  80.5843 279.5513 14.57136200641206"},{"id":"40119","name":"BRITE-PL 2","type":"PAYLOAD","l1":"1 40119U 14049B   26203.58697205  .00001590  00000-0  15181-3 0  9992","l2":"2 40119  97.9122 315.8672 0013634 358.1835   1.9333 14.94702812646732"},{"id":"40482","name":"MMS 1","type":"PAYLOAD","l1":"1 40482U 15011A   26203.66668981 -.00001491  00000-0  00000-0 0  9995","l2":"2 40482  72.5709 348.3769 8301859 168.1778 317.7394  0.28358585  1382"},{"id":"40483","name":"MMS 2","type":"PAYLOAD","l1":"1 40483U 15011B   26203.66668981 -.00001492  00000-0  00000-0 0  9997","l2":"2 40483  72.5750 348.3759 8304685 168.1809 317.7258  0.28358399  1385"},{"id":"40484","name":"MMS 3","type":"PAYLOAD","l1":"1 40484U 15011C   26203.66668981 -.00001490  00000-0  00000-0 0  9996","l2":"2 40484  72.5747 348.3878 8303052 168.1886 317.6999  0.28358381  1355"},{"id":"40485","name":"MMS 4","type":"PAYLOAD","l1":"1 40485U 15011D   26203.66668981 -.00001491  00000-0  00000-0 0  9998","l2":"2 40485  72.5702 348.3713 8303009 168.1985 317.6962  0.28358428  1382"},{"id":"40930","name":"ASTROSAT","type":"PAYLOAD","l1":"1 40930U 15052A   26203.54391272  .00001381  00000-0  86273-4 0  9998","l2":"2 40930   5.9965 260.8562 0007920 184.2951 175.7109 14.82560547585087"},{"id":"41173","name":"DAMPE","type":"PAYLOAD","l1":"1 41173U 15078A   26203.59683455  .00001104  00000-0  39595-4 0  9996","l2":"2 41173  97.4574 209.2412 0010738 317.7198  42.3214 15.30866194589965"},{"id":"41784","name":"PISAT","type":"PAYLOAD","l1":"1 41784U 16059B   26203.42719677  .00000781  00000-0  14023-3 0  9990","l2":"2 41784  97.8195 202.3689 0030585  92.8219 267.6488 14.69039095524915"},{"id":"42758","name":"HXMT","type":"PAYLOAD","l1":"1 42758U 17034A   26203.52032362  .00005029  00000-0  24622-3 0  9992","l2":"2 42758  43.0151 346.2577 0031290   7.0253 353.1028 15.18734331503037"},{"id":"42831","name":"FLYING LAPTOP","type":"PAYLOAD","l1":"1 42831U 17042G   26203.64479726  .00002663  00000-0  21046-3 0  9993","l2":"2 42831  97.4845 357.8522 0019245   8.7660 351.3897 15.01345106491777"},{"id":"43194","name":"ZHANGHENG 1","type":"PAYLOAD","l1":"1 43194U 18015C   26203.60281897  .00007562  00000-0  34620-3 0  9998","l2":"2 43194  97.6902   9.9694 0016929 140.3790 219.8686 15.20677562470028"},{"id":"46495","name":"SALSAT","type":"PAYLOAD","l1":"1 46495U 20068K   26203.46128258  .00007239  00000-0  24997-3 0  9998","l2":"2 46495  97.8868 208.6876 0009978 167.8214 192.3268 15.30243913320754"},{"id":"49954","name":"IXPE","type":"PAYLOAD","l1":"1 49954U 21121A   26203.66668981  .00010481  00000-0  56180-3 0  9998","l2":"2 49954   0.2305  48.8875 0006832 258.0934 190.9857 15.10537162  5198"},{"id":"69123","name":"SMILE","type":"PAYLOAD","l1":"1 69123U 26109A   26194.95939329  .00000936  00000-0  00000-0 0  9998","l2":"2 69123  70.0512 206.6048 8313708 286.9544   0.1879  0.47500629    66"}]}